KUIPER-00061            
1 64521U 25134X   25273.00002315 -.01540793  00000+0 -13435+0 0  9998
2 64521  51.8901 219.6531 0008309  90.9130 218.3206 14.99561376  4415
KUIPER-00062            
1 64522U 25134Y   25273.00002315 -.00997017  00000+0 -10164+0 0  9999
2 64522  51.8931 226.2406 0009111 114.2761 280.5511 14.93173969  5531
KUIPER-00063            
1 64523U 25134Z   25271.88167304  .00007453  00000+0  10126-2 0  9999
2 64523  51.9011 233.4874 0004332  61.4687 298.6711 14.79637575 16043
KUIPER-00064            
1 64524U 25134AA  25272.40386944  .00009621  00000+0  13122-2 0  9990
2 64524  51.9018 228.3765 0006095 174.2690 185.8343 14.79177896 16164
KUIPER-00065            
1 64525U 25134AB  25272.31796696  .00007835  00000+0  10570-2 0  9999
2 64525  51.9000 233.7883 0012014 107.2385 252.9894 14.79841385 16069
KUIPER-00066            
1 64526U 25134AC  25273.00002315 -.00009948  00000+0 -47497-3 0  9993
2 64526  51.8888 221.3414 0005648 104.5941 119.4375 15.17486940  5726
KUIPER-00069            
1 64816U 25151A   25273.00002315 -.00105410  00000+0 -31465-2 0  9992
2 64816  51.8786 281.9927 0006855  62.6632  37.4496 15.34398949  4270
KUIPER-00070            
1 64817U 25151B   25269.34554759  .00005210  00000+0  71405-3 0  9993
2 64817  51.8988 312.2198 0009660  73.4729 286.7294 14.79789807 12085
